*******************************************************************************
Ephemeris / WWW_USER Mon Mar 24 10:35:41 2025 Pasadena, USA      / Horizons    
*******************************************************************************
Target body name: 62412 (2000 SY178)              {source: JPL#46}
Center body name: Earth (399)                     {source: DE441}
Center-site name: Mauna Kea
*******************************************************************************
Start time      : A.D. 2018-Aug-02 05:08:00.0000 UT      
Stop  time      : A.D. 2018-Aug-02 15:48:00.0000 UT      
Step-size       : 1 minutes
*******************************************************************************
Target pole/equ : undefined
Target radii    : 5.187 km                                                     
Center geodetic : 204.5278, 19.8260847, 4.21024   {E-lon(deg),Lat(deg),Alt(km)}
Center cylindric: 204.5278, 6006.35451, 2151.0229 {E-lon(deg),Dxy(km),Dz(km)}
Center pole/equ : ITRF93                          {East-longitude positive}
Center radii    : 6378.137, 6378.137, 6356.752 km {Equator_a, b, pole_c}       
Target primary  : Sun
Vis. interferer : MOON (R_eq= 1737.400) km        {source: DE441}
Rel. light bend : Sun                             {source: DE441}
Rel. lght bnd GM: 1.3271E+11 km^3/s^2                                          
Small-body perts: Yes                             {source: SB441-N16}
Atmos refraction: NO (AIRLESS)
RA format       : HMS
Time format     : CAL 
Calendar mode   : Mixed Julian/Gregorian
RTS-only print  : NO       
EOP file        : eop.250321.p250617                                           
EOP coverage    : DATA-BASED 1962-JAN-20 TO 2025-MAR-21. PREDICTS-> 2025-JUN-16
Units conversion: 1 au= 149597870.700 km, c= 299792.458 km/s, 1 day= 86400.0 s 
Table cut-offs 1: Elevation (-90.0deg=NO ),Airmass (>38.000=NO), Daylight (YES)
Table cut-offs 2: Solar elongation (  0.0,180.0=NO ),Local Hour Angle( 0.0=NO )
Table cut-offs 3: RA/DEC angular rate (     0.0=NO )                           
*******************************************************************************
Initial IAU76/J2000 heliocentric ecliptic osculating elements (au, days, deg.):
  EPOCH=  2458170.5 ! 2018-Feb-21.00 (TDB)         Residual RMS= .27602        
   EC= .08138541630493452  QR= 2.896136740642169   TP= 2458420.7194902785      
   OM= 329.1508619589129   W=  163.0731028483118   IN= 4.736237123453259       
  Equivalent ICRF heliocentric cartesian coordinates (au, au/d):
   X= 4.513940497926217E-01  Y= 2.603132519717001E+00  Z= 1.377127424929858E+00
  VX=-1.018381435292277E-02 VY= 1.034394081524039E-03 VZ= 5.207836918344824E-05
Asteroid physical parameters (km, seconds, rotational period in hours):        
   GM= n.a.                RAD= 5.187              ROTPER= 3.33                
   H= 13.88                G= .150                 B-V= n.a.                   
                           ALBEDO= .065            STYP= n.a.                  
*******************************************************************************
 Date__(UT)__HR:MN     R.A._________(ICRF)_________DEC
******************************************************
$$SOE
 2018-Aug-02 07:11     08 02 34.414997 +22 32 00.02116
 2018-Aug-02 07:12     08 02 34.485433 +22 31 59.79537
 2018-Aug-02 07:13     08 02 34.555870 +22 31 59.56960
 2018-Aug-02 07:14     08 02 34.626310 +22 31 59.34384
 2018-Aug-02 07:15     08 02 34.696751 +22 31 59.11809
 2018-Aug-02 07:16     08 02 34.767194 +22 31 58.89235
 2018-Aug-02 07:17     08 02 34.837638 +22 31 58.66662
 2018-Aug-02 07:18     08 02 34.908084 +22 31 58.44091
 2018-Aug-02 07:19     08 02 34.978532 +22 31 58.21520
 2018-Aug-02 07:20     08 02 35.048981 +22 31 57.98950
 2018-Aug-02 07:21     08 02 35.119432 +22 31 57.76382
 2018-Aug-02 07:22     08 02 35.189885 +22 31 57.53815
 2018-Aug-02 07:23     08 02 35.260339 +22 31 57.31248
 2018-Aug-02 07:24     08 02 35.330795 +22 31 57.08683
 2018-Aug-02 07:25     08 02 35.401252 +22 31 56.86119
 2018-Aug-02 07:26     08 02 35.471711 +22 31 56.63557
 2018-Aug-02 07:27     08 02 35.542172 +22 31 56.40995
 2018-Aug-02 07:28     08 02 35.612634 +22 31 56.18434
 2018-Aug-02 07:29     08 02 35.683097 +22 31 55.95875
 2018-Aug-02 07:30     08 02 35.753562 +22 31 55.73317
 2018-Aug-02 07:31     08 02 35.824029 +22 31 55.50760
 2018-Aug-02 07:32     08 02 35.894497 +22 31 55.28204
 2018-Aug-02 07:33     08 02 35.964967 +22 31 55.05649
 2018-Aug-02 07:34     08 02 36.035438 +22 31 54.83095
 2018-Aug-02 07:35     08 02 36.105910 +22 31 54.60543
 2018-Aug-02 07:36     08 02 36.176384 +22 31 54.37991
 2018-Aug-02 07:37     08 02 36.246860 +22 31 54.15441
 2018-Aug-02 07:38     08 02 36.317337 +22 31 53.92892
 2018-Aug-02 07:39     08 02 36.387815 +22 31 53.70344
 2018-Aug-02 07:40     08 02 36.458295 +22 31 53.47797
 2018-Aug-02 07:41     08 02 36.528776 +22 31 53.25252
 2018-Aug-02 07:42     08 02 36.599259 +22 31 53.02708
 2018-Aug-02 07:43     08 02 36.669743 +22 31 52.80165
 2018-Aug-02 07:44     08 02 36.740228 +22 31 52.57623
 2018-Aug-02 07:45     08 02 36.810715 +22 31 52.35082
 2018-Aug-02 07:46     08 02 36.881203 +22 31 52.12542
 2018-Aug-02 07:47     08 02 36.951692 +22 31 51.90004
 2018-Aug-02 07:48     08 02 37.022183 +22 31 51.67467
 2018-Aug-02 07:49     08 02 37.092675 +22 31 51.44931
 2018-Aug-02 07:50     08 02 37.163168 +22 31 51.22396
 2018-Aug-02 07:51     08 02 37.233663 +22 31 50.99863
 2018-Aug-02 07:52     08 02 37.304159 +22 31 50.77331
 2018-Aug-02 07:53     08 02 37.374656 +22 31 50.54800
 2018-Aug-02 07:54     08 02 37.445155 +22 31 50.32270
 2018-Aug-02 07:55     08 02 37.515655 +22 31 50.09741
 2018-Aug-02 07:56     08 02 37.586155 +22 31 49.87214
 2018-Aug-02 07:57     08 02 37.656658 +22 31 49.64688
 2018-Aug-02 07:58     08 02 37.727161 +22 31 49.42163
 2018-Aug-02 07:59     08 02 37.797666 +22 31 49.19639
 2018-Aug-02 08:00     08 02 37.868172 +22 31 48.97117
 2018-Aug-02 08:01     08 02 37.938679 +22 31 48.74596
 2018-Aug-02 08:02     08 02 38.009187 +22 31 48.52076
 2018-Aug-02 08:03     08 02 38.079696 +22 31 48.29557
 2018-Aug-02 08:04     08 02 38.150206 +22 31 48.07039
 2018-Aug-02 08:05     08 02 38.220718 +22 31 47.84523
 2018-Aug-02 08:06     08 02 38.291231 +22 31 47.62008
 2018-Aug-02 08:07     08 02 38.361745 +22 31 47.39495
 2018-Aug-02 08:08     08 02 38.432260 +22 31 47.16982
 2018-Aug-02 08:09     08 02 38.502776 +22 31 46.94471
 2018-Aug-02 08:10     08 02 38.573293 +22 31 46.71961
 2018-Aug-02 08:11     08 02 38.643811 +22 31 46.49453
 2018-Aug-02 08:12     08 02 38.714330 +22 31 46.26946
 2018-Aug-02 08:13     08 02 38.784850 +22 31 46.04439
 2018-Aug-02 08:14     08 02 38.855372 +22 31 45.81935
 2018-Aug-02 08:15     08 02 38.925894 +22 31 45.59431
 2018-Aug-02 08:16     08 02 38.996417 +22 31 45.36929
 2018-Aug-02 08:17     08 02 39.066942 +22 31 45.14428
 2018-Aug-02 08:18     08 02 39.137467 +22 31 44.91929
 2018-Aug-02 08:19  m  08 02 39.207993 +22 31 44.69430
 2018-Aug-02 08:20  m  08 02 39.278520 +22 31 44.46933
 2018-Aug-02 08:21  m  08 02 39.349048 +22 31 44.24438
 2018-Aug-02 08:22  m  08 02 39.419578 +22 31 44.01943
 2018-Aug-02 08:23  m  08 02 39.490108 +22 31 43.79450
 2018-Aug-02 08:24  m  08 02 39.560638 +22 31 43.56958
 2018-Aug-02 08:25  m  08 02 39.631170 +22 31 43.34468
 2018-Aug-02 08:26  m  08 02 39.701703 +22 31 43.11978
 2018-Aug-02 08:27  m  08 02 39.772237 +22 31 42.89491
 2018-Aug-02 08:28  m  08 02 39.842771 +22 31 42.67004
 2018-Aug-02 08:29  m  08 02 39.913306 +22 31 42.44519
 2018-Aug-02 08:30  m  08 02 39.983842 +22 31 42.22035
 2018-Aug-02 08:31  m  08 02 40.054379 +22 31 41.99552
 2018-Aug-02 08:32  m  08 02 40.124917 +22 31 41.77071
 2018-Aug-02 08:33  m  08 02 40.195456 +22 31 41.54591
 2018-Aug-02 08:34  m  08 02 40.265995 +22 31 41.32112
 2018-Aug-02 08:35  m  08 02 40.336535 +22 31 41.09635
 2018-Aug-02 08:36  m  08 02 40.407076 +22 31 40.87159
 2018-Aug-02 08:37  m  08 02 40.477618 +22 31 40.64684
 2018-Aug-02 08:38  m  08 02 40.548160 +22 31 40.42211
 2018-Aug-02 08:39  m  08 02 40.618703 +22 31 40.19739
 2018-Aug-02 08:40  m  08 02 40.689247 +22 31 39.97268
 2018-Aug-02 08:41  m  08 02 40.759792 +22 31 39.74799
 2018-Aug-02 08:42  m  08 02 40.830337 +22 31 39.52331
 2018-Aug-02 08:43  m  08 02 40.900883 +22 31 39.29864
 2018-Aug-02 08:44  m  08 02 40.971429 +22 31 39.07399
 2018-Aug-02 08:45  m  08 02 41.041976 +22 31 38.84935
 2018-Aug-02 08:46  m  08 02 41.112524 +22 31 38.62472
 2018-Aug-02 08:47  m  08 02 41.183073 +22 31 38.40011
 2018-Aug-02 08:48  m  08 02 41.253622 +22 31 38.17551
 2018-Aug-02 08:49  m  08 02 41.324172 +22 31 37.95092
 2018-Aug-02 08:50  m  08 02 41.394722 +22 31 37.72635
 2018-Aug-02 08:51  m  08 02 41.465273 +22 31 37.50179
 2018-Aug-02 08:52  m  08 02 41.535824 +22 31 37.27725
 2018-Aug-02 08:53  m  08 02 41.606376 +22 31 37.05272
 2018-Aug-02 08:54  m  08 02 41.676929 +22 31 36.82820
 2018-Aug-02 08:55  m  08 02 41.747482 +22 31 36.60369
 2018-Aug-02 08:56  m  08 02 41.818035 +22 31 36.37920
 2018-Aug-02 08:57  m  08 02 41.888589 +22 31 36.15473
 2018-Aug-02 08:58  m  08 02 41.959144 +22 31 35.93026
 2018-Aug-02 08:59  m  08 02 42.029699 +22 31 35.70581
 2018-Aug-02 09:00  m  08 02 42.100254 +22 31 35.48138
 2018-Aug-02 09:01  m  08 02 42.170810 +22 31 35.25696
 2018-Aug-02 09:02  m  08 02 42.241367 +22 31 35.03255
 2018-Aug-02 09:03  m  08 02 42.311924 +22 31 34.80815
 2018-Aug-02 09:04  m  08 02 42.382481 +22 31 34.58377
 2018-Aug-02 09:05  m  08 02 42.453038 +22 31 34.35940
 2018-Aug-02 09:06  m  08 02 42.523597 +22 31 34.13505
 2018-Aug-02 09:07  m  08 02 42.594155 +22 31 33.91071
 2018-Aug-02 09:08  m  08 02 42.664714 +22 31 33.68638
 2018-Aug-02 09:09  m  08 02 42.735273 +22 31 33.46207
 2018-Aug-02 09:10  m  08 02 42.805832 +22 31 33.23777
 2018-Aug-02 09:11  m  08 02 42.876392 +22 31 33.01349
 2018-Aug-02 09:12  m  08 02 42.946952 +22 31 32.78921
 2018-Aug-02 09:13  m  08 02 43.017513 +22 31 32.56496
